KUIPER-00167            
1 65780U 25217U   25343.83335647 -.00690495  00000+0 -64197-1 0  9991
2 65780  51.8891  83.7396 0011420 333.7101  12.9283 14.96614833  5692
KUIPER-00168            
1 65781U 25217V   25343.68993248  .00083080  00000+0  21126-2 0  9992
2 65781  51.8719  78.5640 0000979 320.4690  39.6226 15.38886203 11586
KUIPER-00169            
1 65782U 25217W   25343.66948220  .00060164  00000+0  16984-2 0  9995
2 65782  51.8745  79.1738 0005054 338.8924  21.1852 15.35792037 11571
KUIPER-00170            
1 65783U 25217X   25343.83335647 -.00983794  00000+0 -44853-1 0  9998
2 65783  51.8784  80.0094 0009149 351.5835 120.0477 15.22853156  5530
KUIPER-00171            
1 65784U 25217Y   25343.83335647  .00061761  00000+0  52173-3 0  9994
2 65784  51.8567  70.9616 0010164 358.7866 167.3389 15.69104389  5668
KUIPER-00172            
1 65785U 25217Z   25343.57405970  .00048608  00000+0  12538-2 0  9998
2 65785  51.8721  79.2829 0005068 335.2335  24.8408 15.38681748 11567
KUIPER-00173            
1 65786U 25217AA  25343.67508513  .00068420  00000+0  20580-2 0  9997
2 65786  51.8737  79.1764 0003678 301.4657  58.5968 15.33741765 11576
KUIPER-00174            
1 65787U 25217AB  25343.57029647  .00047323  00000+0  12360-2 0  9999
2 65787  51.8716  79.2568 0002933 289.1586  70.9083 15.38316707 11567
